[Satellite]
VERSION=1.1
NAME=FLOCK 3P-25
NICKNAME=FLOCK 3P-25
TLE1=1 41964U 17008S   18020.90021633  .00002825  00000-0  12012-3 0  9991
TLE2=2 41964  97.4687  86.4583 0009715 141.3894 218.8039 15.23828636 51497
